*******************************************************************************
JPL/HORIZONS               4177 Kohman (1987 SS1)          2023-Sep-04 11:27:44
Rec #:    4177 (+COV) Soln.date: 2023-Aug-23_16:39:48   # obs: 2478 (1984-2023)
 
IAU76/J2000 helio. ecliptic osc. elements (au, days, deg., period=Julian yrs):
 
  EPOCH=  2457939.5 ! 2017-Jul-05.00 (TDB)         Residual RMS= .23571
   EC= .2859394938636559   QR= 2.357429907355084   TP= 2458059.8148995317
   OM= 210.6936706029227   W=  157.8931306559762   IN= 17.17372583663906
   A= 3.301442786845506    MA= 340.23176826676     ADIST= 4.245455666335928
   PER= 5.99879            N= .164304104           ANGMOM= .029950985
   DAN= 4.12405            DDN= 2.39661            L= 9.483096
   B= 6.3799127            MOID= 1.36713004        TP= 2017-Nov-02.3148995317
 
Asteroid physical parameters (km, seconds, rotational period in hours):
   GM= n.a.                RAD= 5.5295             ROTPER= n.a.
   H= 13.17                G= .150                 B-V= n.a.
                           ALBEDO= .120            STYP= n.a.

ASTEROID comments: 
1: soln ref.= JPL#37, OCC=0
2: source=ORB
*******************************************************************************


*******************************************************************************
Ephemeris / API_USER Mon Sep  4 11:27:44 2023 Pasadena, USA      / Horizons
*******************************************************************************
Target body name: 4177 Kohman (1987 SS1)          {source: JPL#37}
Center body name: Solar System Barycenter (0)     {source: DE441}
Center-site name: BODY CENTER
*******************************************************************************
Start time      : A.D. 2023-Aug-12 00:00:00.0000 TDB
Stop  time      : A.D. 2023-Aug-13 00:00:00.0000 TDB
Step-size       : 2880 minutes
*******************************************************************************
Center geodetic : 0.0, 0.0, 0.0                   {E-lon(deg),Lat(deg),Alt(km)}
Center cylindric: 0.0, 0.0, 0.0                   {E-lon(deg),Dxy(km),Dz(km)}
Center radii    : (undefined)
Small perturbers: Yes                             {source: SB441-N16}
Output units    : KM-S
Calendar mode   : Mixed Julian/Gregorian
Output type     : GEOMETRIC cartesian states
Output format   : 2 (position and velocity)
Reference frame : Ecliptic of J2000.0
*******************************************************************************
Initial IAU76/J2000 heliocentric ecliptic osculating elements (au, days, deg.):
  EPOCH=  2457939.5 ! 2017-Jul-05.00 (TDB)         Residual RMS= .23571        
   EC= .2859394938636559   QR= 2.357429907355084   TP= 2458059.8148995317      
   OM= 210.6936706029227   W=  157.8931306559762   IN= 17.17372583663906       
  Equivalent ICRF heliocentric cartesian coordinates (au, au/d):
   X= 2.136873039903544E+00  Y=-1.214768159936062E+00  Z= 1.466807715710839E-01
  VX= 4.315906912341724E-03 VY= 1.124841773615046E-02 VZ= 2.357885248815350E-03
Asteroid physical parameters (km, seconds, rotational period in hours):        
   GM= n.a.                RAD= 5.5295             ROTPER= n.a.                
   H= 13.17                G= .150                 B-V= n.a.                   
                           ALBEDO= .120            STYP= n.a.                  
*******************************************************************************
JDTDB
   X     Y     Z
   VX    VY    VZ
*******************************************************************************
$$SOE
2460168.500000000 = A.D. 2023-Aug-12 00:00:00.0000 TDB 
 X = 3.374706990945020E+08 Y =-8.897957981196737E+07 Z = 7.708293792611270E+07
 VX= 4.359955885060205E+00 VY= 2.069804572517809E+01 VZ=-4.823884015505540E+00
$$EOE
*******************************************************************************
 
TIME

  Barycentric Dynamical Time ("TDB" or T_eph) output was requested. This
continuous coordinate time is equivalent to the relativistic proper time
of a clock at rest in a reference frame co-moving with the solar system
barycenter but outside the system's gravity well. It is the independent
variable in the solar system relativistic equations of motion.

  TDB runs at a uniform rate of one SI second per second and is independent
of irregularities in Earth's rotation.
 
CALENDAR SYSTEM

  Mixed calendar mode was active such that calendar dates after AD 1582-Oct-15
(if any) are in the modern Gregorian system. Dates prior to 1582-Oct-5 (if any)
are in the Julian calendar system, which is automatically extended for dates
prior to its adoption on 45-Jan-1 BC.  The Julian calendar is useful for
matching historical dates. The Gregorian calendar more accurately corresponds
to the Earth's orbital motion and seasons. A "Gregorian-only" calendar mode is
available if such physical events are the primary interest.

REFERENCE FRAME AND COORDINATES

  Ecliptic at the standard reference epoch

    Reference epoch: J2000.0
    X-Y plane: adopted Earth orbital plane at the reference epoch
               Note: IAU76 obliquity of 84381.448 arcseconds wrt ICRF X-Y plane
    X-axis   : ICRF
    Z-axis   : perpendicular to the X-Y plane in the directional (+ or -) sense
               of Earth's north pole at the reference epoch.

  Symbol meaning:

    JDTDB    Julian Day Number, Barycentric Dynamical Time
      X      X-component of position vector (km)
      Y      Y-component of position vector (km)
      Z      Z-component of position vector (km)
      VX     X-component of velocity vector (km/sec)                           
      VY     Y-component of velocity vector (km/sec)                           
      VZ     Z-component of velocity vector (km/sec)                           

ABERRATIONS AND CORRECTIONS

 Geometric state vectors have NO corrections or aberrations applied.

Computations by ...

    Solar System Dynamics Group, Horizons On-Line Ephemeris System
    4800 Oak Grove Drive, Jet Propulsion Laboratory
    Pasadena, CA  91109   USA

    General site: https://ssd.jpl.nasa.gov/
    Mailing list: https://ssd.jpl.nasa.gov/email_list.html
    System news : https://ssd.jpl.nasa.gov/horizons/news.html
    User Guide  : https://ssd.jpl.nasa.gov/horizons/manual.html
    Connect     : browser        https://ssd.jpl.nasa.gov/horizons/app.html#/x
                  API            https://ssd-api.jpl.nasa.gov/doc/horizons.html
                  command-line   telnet ssd.jpl.nasa.gov 6775
                  e-mail/batch   https://ssd.jpl.nasa.gov/ftp/ssd/hrzn_batch.txt
                  scripts        https://ssd.jpl.nasa.gov/ftp/ssd/SCRIPTS
    Author      : Jon.D.Giorgini@jpl.nasa.gov
*******************************************************************************
